{"type": "FeatureCollection", "features": [{"type": "Feature", "properties": {"STATE_NAME": "Western Australia", "state": "WA"}, "geometry": {"type": "Polygon", "coordinates": [[[112, -14], [129, -14], [129, -35], [122, -35], [115, -34], [113, -30], [112, -14]]]}}, {"type": "Feature", "properties": {"STATE_NAME": "Northern Territory", "state": "NT"}, "geometry": {"type": "Polygon", "coordinates": [[[129, -11], [138, -11], [138, -26], [129, -26], [129, -11]]]}}, {"type": "Feature", "properties": {"STATE_NAME": "South Australia", "state": "SA"}, "geometry": {"type": "Polygon", "coordinates": [[[129, -26], [141, -26], [141, -38], [137, -36], [132, -32], [129, -32], [129, -26]]]}}, {"type": "Feature", "properties": {"STATE_NAME": "Queensland", "state": "QLD"}, "geometry": {"type": "Polygon", "coordinates": [[[138, -11], [154, -16], [153, -28], [149, -29], [141, -29], [141, -26], [138, -26], [138, -11]]]}}, {"type": "Feature", "properties": {"STATE_NAME": "New South Wales", "state": "NSW"}, "geometry": {"type": "Polygon", "coordinates": [[[141, -29], [153, -29], [151, -36], [148, -37], [141, -34], [141, -29]]]}}, {"type": "Feature", "properties": {"STATE_NAME": "Victoria", "state": "VIC"}, "geometry": {"type": "Polygon", "coordinates": [[[141, -34], [148, -37], [150, -38], [146, -39], [141, -38], [141, -34]]]}}, {"type": "Feature", "properties": {"STATE_NAME": "Tasmania", "state": "TAS"}, "geometry": {"type": "Polygon", "coordinates": [[[144, -40.5], [149, -40.7], [148, -43.7], [145, -43.5], [144, -40.5]]]}}, {"type": "Feature", "properties": {"STATE_NAME": "Australian Capital Territory", "state": "ACT"}, "geometry": {"type": "Polygon", "coordinates": [[[148.7, -35.1], [149.3, -35.1], [149.3, -35.7], [148.7, -35.7], [148.7, -35.1]]]}}]}
